{"fetched_at":"2026-03-29T02:12:04Z","count":15717,"tles":[{"name":"BEIDOU-3 M2 (C20)","line1":"1 43002U 17069B   26084.30647881  .00000003  00000+0  00000+0 0  9990","line2":"2 43002  56.6199  65.8818 0010018 332.3985  27.5434  1.86230563 57030","category":"GPS"}]}